[{"OBJECT_NAME":"STARLINK-1221","OBJECT_ID":"2020-012BB","EPOCH":"2026-03-09T20:19:19.583616","MEAN_MOTION":15.41921264,"ECCENTRICITY":0.00031743,"INCLINATION":53.0648,"RA_OF_ASC_NODE":268.8713,"ARG_OF_PERICENTER":49.9082,"MEAN_ANOMALY":310.22,"EPHEMERIS_TYPE":0,"CLASSIFICATION_TYPE":"U","NORAD_CAT_ID":45227,"ELEMENT_SET_NO":999,"REV_AT_EPOCH":33673,"BSTAR":0.00044901803,"MEAN_MOTION_DOT":0.00019024,"MEAN_MOTION_DDOT":0},{"OBJECT_NAME":"FREGAT DEB (TANK)","OBJECT_ID":"2011-001D","EPOCH":"2026-03-09T16:31:00.329664","MEAN_MOTION":13.083899,"ECCENTRICITY":0.12362877,"INCLINATION":50.3015,"RA_OF_ASC_NODE":163.3878,"ARG_OF_PERICENTER":81.6211,"MEAN_ANOMALY":292.2577,"EPHEMERIS_TYPE":0,"CLASSIFICATION_TYPE":"U","NORAD_CAT_ID":37347,"ELEMENT_SET_NO":999,"REV_AT_EPOCH":64289,"BSTAR":0.0007990264,"MEAN_MOTION_DOT":0.00029702,"MEAN_MOTION_DDOT":6.423516e-6}]
